QIANFAN-89              
1 63175U 25046S   25281.92196699  .00000187  00000+0  27120-3 0  9998
2 63175  88.9807 326.7447 0014698 317.9691  42.0331 13.50968016 38655
QIANFAN-90              
1 63176U 25046T   25281.95071073  .00000162  00000+0  23317-3 0  9997
2 63176  88.9805 326.7141 0011602 317.0951  42.9294 13.50970125 38670
